{
  "norad_id": 69009,
  "name": "CAS500-2 RIDESHARE OBJECT AF",
  "history": [
    {
      "epoch": "2026-05-09T15:44:17.808288Z",
      "apogee_km": 512.371291763844,
      "perigee_km": 502.9515195449094,
      "latitude_deg": -6.24636368042265e-05,
      "longitude_deg": -75.38230761548688,
      "height_km": 512.2846656691671,
      "semi_major_axis_km": 6885.798405654376,
      "eccentricity": 0.000684,
      "inclination_deg": 97.4075,
      "raan_deg": 28.1621,
      "arg_perigee_deg": 109.161,
      "mean_anomaly_deg": 251.0365,
      "mean_motion_rev_day": 15.19397146
    }
  ]
}