CAS500-2 RIDESHARE OBJE*
1 69009U 26100AF  26129.65576167  .00009107  00000+0  43302-3 0  9997
2 69009  97.4075  28.1621 0006840 109.1610 251.0365 15.19397146   956
